$$SOE
2459580.500000000, A.D. 2022-Jan-01 00:00:00.0000, 3.021206155319520E+08, 2.026185159025311E+08, 3.045715326715975E+07,
2459587.500000000, A.D. 2022-Jan-08 00:00:00.0000, 2.962409929458859E+08, 2.117342527909258E+08, 2.997112574735913E+07,
2459594.500000000, A.D. 2022-Jan-15 00:00:00.0000, 2.900665228904539E+08, 2.206391768234906E+08, 2.945526083708049E+07,
2459601.500000000, A.D. 2022-Jan-22 00:00:00.0000, 2.836040001270027E+08, 2.293249168935114E+08, 2.891013756922781E+07,
2459608.500000000, A.D. 2022-Jan-29 00:00:00.0000, 2.768603800045024E+08, 2.377832819511164E+08, 2.833635177921818E+07,
2459615.500000000, A.D. 2022-Feb-05 00:00:00.0000, 2.698427748115599E+08, 2.460062585253297E+08, 2.773451610160561E+07,
2459622.500000000, A.D. 2022-Feb-12 00:00:00.0000, 2.625584526759264E+08, 2.539860074063199E+08, 2.710525971946903E+07,
2459629.500000000, A.D. 2022-Feb-19 00:00:00.0000, 2.550148376670552E+08, 2.617148618701929E+08, 2.644922817905094E+07,
2459636.500000000, A.D. 2022-Feb-26 00:00:00.0000, 2.472195097703067E+08, 2.691853267395723E+08, 2.576708332896748E+07,
2459643.500000000, A.D. 2022-Mar-05 00:00:00.0000, 2.391802048744482E+08, 2.763900776800448E+08, 2.505950331736450E+07,
2459650.500000000, A.D. 2022-Mar-12 00:00:00.0000, 2.309048149772955E+08, 2.833219606831950E+08, 2.432718261960603E+07,
2459657.500000000, A.D. 2022-Mar-19 00:00:00.0000, 2.224013886635443E+08, 2.899739917803838E+08, 2.357083209050466E+07,
2459664.500000000, A.D. 2022-Mar-26 00:00:00.0000, 2.136781318599921E+08, 2.963393569973723E+08, 2.279117903678639E+07,
2459671.500000000, A.D. 2022-Apr-02 00:00:00.0000, 2.047434089185003E+08, 3.024114125102589E+08, 2.198896729729180E+07,
2459678.500000000, A.D. 2022-Apr-09 00:00:00.0000, 1.956057442813307E+08, 3.081836850248119E+08, 2.116495730476932E+07,
2459685.500000000, A.D. 2022-Apr-16 00:00:00.0000, 1.862738250700034E+08, 3.136498730513527E+08, 2.031992614832895E+07,
2459692.500000000, A.D. 2022-Apr-23 00:00:00.0000, 1.767565033127097E+08, 3.188038501731918E+08, 1.945466783919100E+07,
2459699.500000000, A.D. 2022-Apr-30 00:00:00.0000, 1.670627959161711E+08, 3.236396680747398E+08, 1.856999376565427E+07,
2459706.500000000, A.D. 2022-May-07 00:00:00.0000, 1.572018854227234E+08, 3.281515573789099E+08, 1.766673289447224E+07,
2459713.500000000, A.D. 2022-May-14 00:00:00.0000, 1.471831229276001E+08, 3.323339293532910E+08, 1.674573183773297E+07,
2459720.500000000, A.D. 2022-May-21 00:00:00.0000, 1.370160311048409E+08, 3.361813792579005E+08, 1.580785503105907E+07,
2459727.500000000, A.D. 2022-May-28 00:00:00.0000, 1.267103068390088E+08, 3.396886903923433E+08, 1.485398498670053E+07,
2459734.500000000, A.D. 2022-Jun-04 00:00:00.0000, 1.162758237157720E+08, 3.428508385482442E+08, 1.388502256859782E+07,
2459741.500000000, A.D. 2022-Jun-11 00:00:00.0000, 1.057226344910869E+08, 3.456629968882287E+08, 1.290188727422443E+07,
2459748.500000000, A.D. 2022-Jun-18 00:00:00.0000, 9.506097355112515E+07, 3.481205412839783E+08, 1.190551751848796E+07,
2459755.500000000, A.D. 2022-Jun-25 00:00:00.0000, 8.430125936385445E+07, 3.502190560996563E+08, 1.089687091189337E+07,
2459762.500000000, A.D. 2022-Jul-02 00:00:00.0000, 7.345409702546777E+07, 3.519543403748634E+08, 9.876924512800485E+06,
2459769.500000000, A.D. 2022-Jul-09 00:00:00.0000, 6.253028125855495E+07, 3.533224146053787E+08, 8.846675029836729E+06,
2459776.500000000, A.D. 2022-Jul-16 00:00:00.0000, 5.154079977253532E+07, 3.543195292284591E+08, 7.807139065028369E+06,
2459783.500000000, A.D. 2022-Jul-23 00:00:00.0000, 4.049683475495350E+07, 3.549421749108766E+08, 6.759353601813838E+06,
2459790.500000000, A.D. 2022-Jul-30 00:00:00.0000, 2.940976253755938E+07, 3.551870912976358E+08, 5.704376452519313E+06,
2459797.500000000, A.D. 2022-Aug-06 00:00:00.0000, 1.829115499028024E+07, 3.550512748905371E+08, 4.643286384698242E+06,
2459804.500000000, A.D. 2022-Aug-13 00:00:00.0000, 7.152781780209051E+06, 3.545319888305151E+08, 3.577183221863374E+06,
2459811.500000000, A.D. 2022-Aug-20 00:00:00.0000, -3.993388120702964E+06, 3.536267740858310E+08, 2.507188016440347E+06,
2459818.500000000, A.D. 2022-Aug-27 00:00:00.0000, -1.513518567015637E+07, 3.523334613250380E+08, 1.434443225260243E+06,
2459825.500000000, A.D. 2022-Sep-03 00:00:00.0000, -2.626024154971677E+07, 3.506501833769360E+08, 3.601128518822342E+05,
2459832.500000000, A.D. 2022-Sep-10 00:00:00.0000, -3.735598649492509E+07, 3.485753883196028E+08, -7.146174553351551E+05,
2459839.500000000, A.D. 2022-Sep-17 00:00:00.0000, -4.840965219709122E+07, 3.461078532137113E+08, -1.788540358366698E+06,
2459846.500000000, A.D. 2022-Sep-24 00:00:00.0000, -5.940827278295640E+07, 3.432466984392551E+08, -2.860426854748622E+06,
2459853.500000000, A.D. 2022-Oct-01 00:00:00.0000, -7.033868670394313E+07, 3.399914026152094E+08, -3.929026404488310E+06,
2459860.500000000, A.D. 2022-Oct-08 00:00:00.0000, -8.118753870674637E+07, 3.363418186200633E+08, -4.993067161414996E+06,
2459867.500000000, A.D. 2022-Oct-15 00:00:00.0000, -9.194128290281458E+07, 3.322981919064032E+08, -6.051256134314433E+06,
2459874.500000000, A.D. 2022-Oct-22 00:00:00.0000, -1.025861892043012E+08, 3.278611794138125E+08, -7.102279224941999E+06,
2459881.500000000, A.D. 2022-Oct-29 00:00:00.0000, -1.131083507198133E+08, 3.230318664568608E+08, -8.144801592421144E+06,
2459888.500000000, A.D. 2022-Nov-05 00:00:00.0000, -1.234936901172178E+08, 3.178117843000672E+08, -9.177468321666792E+06,
2459895.500000000, A.D. 2022-Nov-12 00:00:00.0000, -1.337279670238279E+08, 3.122029296602400E+08, -1.019890512340789E+07,
2459902.500000000, A.D. 2022-Nov-19 00:00:00.0000, -1.437967872880424E+08, 3.062077851383619E+08, -1.120771908888212E+07,
2459909.500000000, A.D. 2022-Nov-26 00:00:00.0000, -1.536856139513136E+08, 2.998293401269966E+08, -1.220249956666477E+07,
2459916.500000000, A.D. 2022-Dec-03 00:00:00.0000, -1.633797798799268E+08, 2.930711121151456E+08, -1.318181918922290E+07,
2459923.500000000, A.D. 2022-Dec-10 00:00:00.0000, -1.728645021291097E+08, 2.859371683309896E+08, -1.414423506368293E+07,
2459930.500000000, A.D. 2022-Dec-17 00:00:00.0000, -1.821248981344347E+08, 2.784321476057768E+08, -1.508829014323491E+07,
2459937.500000000, A.D. 2022-Dec-24 00:00:00.0000, -1.911460037414527E+08, 2.705612822863918E+08, -1.601251480685966E+07,
2459944.500000000, A.D. 2022-Dec-31 00:00:00.0000, -1.999127928357922E+08, 2.623304201812747E+08, -1.691542868370016E+07,
2459951.500000000, A.D. 2023-Jan-07 00:00:00.0000, -2.084101985700740E+08, 2.537460473622450E+08, -1.779554266704457E+07,
2459958.500000000, A.D. 2023-Jan-14 00:00:00.0000, -2.166231382728212E+08, 2.448153121647931E+08, -1.865136091000775E+07,
2459965.500000000, A.D. 2023-Jan-21 00:00:00.0000, -2.245365427916566E+08, 2.355460470454893E+08, -1.948138301634608E+07,
2459972.500000000, A.D. 2023-Jan-28 00:00:00.0000, -2.321353866918229E+08, 2.259467879017502E+08, -2.028410678856456E+07,
2459979.500000000, A.D. 2023-Feb-04 00:00:00.0000, -2.394047196064325E+08, 2.160267936573147E+08, -2.105803127554904E+07,
2459986.500000000, A.D. 2023-Feb-11 00:00:00.0000, -2.463297006111117E+08, 2.057960656858347E+08, -2.180165998096739E+07,
2459993.500000000, A.D. 2023-Feb-18 00:00:00.0000, -2.528956357382540E+08, 1.952653659904487E+08, -2.251350430080490E+07,
2460000.500000000, A.D. 2023-Feb-25 00:00:00.0000, -2.590880184013757E+08, 1.844462336900439E+08, -2.319208723104299E+07,
2460007.500000000, A.D. 2023-Mar-04 00:00:00.0000, -2.648925726436090E+08, 1.733509995230577E+08, -2.383594735551650E+07,
2460014.500000000, A.D. 2023-Mar-11 00:00:00.0000, -2.702952991755412E+08, 1.619927980463405E+08, -2.444364311761454E+07,
2460021.500000000, A.D. 2023-Mar-18 00:00:00.0000, -2.752825241193478E+08, 1.503855771441961E+08, -2.501375738360342E+07,
2460028.500000000, A.D. 2023-Mar-25 00:00:00.0000, -2.798409501827692E+08, 1.385441044531293E+08, -2.554490231670351E+07,
2460035.500000000, A.D. 2023-Apr-01 00:00:00.0000, -2.839577097227198E+08, 1.264839707364810E+08, -2.603572456137921E+07,
2460042.500000000, A.D. 2023-Apr-08 00:00:00.0000, -2.876204201537401E+08, 1.142215910638400E+08, -2.648491056953788E+07,
2460049.500000000, A.D. 2023-Apr-15 00:00:00.0000, -2.908172438362825E+08, 1.017742023142093E+08, -2.689119192959617E+07,
2460056.500000000, A.D. 2023-Apr-22 00:00:00.0000, -2.935369503866652E+08, 8.915985358351482E+07, -2.725335109520572E+07,
2460063.500000000, A.D. 2023-Apr-29 00:00:00.0000, -2.957689783595378E+08, 7.639739139056493E+07, -2.757022755367551E+07,
2460070.500000000, A.D. 2023-May-06 00:00:00.0000, -2.975034976913739E+08, 6.350644111021878E+07, -2.784072409335185E+07,
2460077.500000000, A.D. 2023-May-13 00:00:00.0000, -2.987314734626055E+08, 5.050738341473043E+07, -2.806381311626828E+07,
2460084.500000000, A.D. 2023-May-20 00:00:00.0000, -2.994447302607914E+08, 3.742132494212295E+07, -2.823854301221623E+07,
2460091.500000000, A.D. 2023-May-27 00:00:00.0000, -2.996360164056852E+08, 2.427006290139636E+07, -2.836404456012325E+07,
2460098.500000000, A.D. 2023-Jun-03 00:00:00.0000, -2.992990673909108E+08, 1.107604341928904E+07, -2.843953730313153E+07,
2460105.500000000, A.D. 2023-Jun-10 00:00:00.0000, -2.984286678984882E+08, -2.137686544098614E+06, -2.846433584484074E+07,
2460112.500000000, A.D. 2023-Jun-17 00:00:00.0000, -2.970207116402026E+08, -1.534753385008875E+07, -2.843785602224047E+07,
2460119.500000000, A.D. 2023-Jun-24 00:00:00.0000, -2.950722580069862E+08, -2.852942034529238E+07, -2.835962091678753E+07,
2460126.500000000, A.D. 2023-Jul-01 00:00:00.0000, -2.925815845379920E+08, -4.165884961565118E+07, -2.822926658912552E+07,
2460133.500000000, A.D. 2023-Jul-08 00:00:00.0000, -2.895482361265137E+08, -5.471097833060324E+07, -2.804654724238276E+07,
2460140.500000000, A.D. 2023-Jul-15 00:00:00.0000, -2.859730714825746E+08, -6.766069473715909E+07, -2.781133985357313E+07,
2460147.500000000, A.D. 2023-Jul-22 00:00:00.0000, -2.818583025918801E+08, -8.048270496608759E+07, -2.752364860768070E+07,
$$EOE